NORAD_CAT_ID,OBJECT_NAME,OBJECT_TYPE,EPOCH,MEAN_MOTION,ECCENTRICITY,INCLINATION,RA_OF_ASC_NODE,ARG_OF_PERICENTER,MEAN_ANOMALY,BSTAR,MEAN_MOTION_DOT,MEAN_MOTION_DDOT,TLE_LINE0,TLE_LINE1,TLE_LINE2,SEMIMAJOR_AXIS,PERIOD,APOGEE,PERIGEE,DECAYED
50815.0,STARLINK-3234,PAYLOAD,2024-05-16 12:22:14,15.08817023,0.0001038,53.2148,261.7338,67.8849,292.2253,-0.00076486,-0.00012432,0.0,0 STARLINK-3234,1 50815U 22001N   24137.51544454 -.00012432  00000-0 -76486-3 0  9991,2 50815  53.2148 261.7338 0001038  67.8849 292.2253 15.08817023131711,6917.951,95.439,540.534,539.098,0.0
50815.0,STARLINK-3234,PAYLOAD,2024-05-16 15:33:00,15.08821814,6.51e-05,53.2145,261.1408,32.8723,327.2309,-0.00044823,-7.41e-05,0.0,0 STARLINK-3234,1 50815U 22001N   24137.64792532 -.00007410  00000-0 -44823-3 0  9997,2 50815  53.2145 261.1408 0000651  32.8723 327.2309 15.08821814130468,6917.936,95.439,540.251,539.351,0.0
50815.0,STARLINK-3234,PAYLOAD,2024-05-17 01:05:20,15.08824243,0.0001113,53.2148,259.3569,82.9074,277.2044,0.00016232,2.295e-05,0.0,0 STARLINK-3234,1 50815U 22001N   24138.04537055  .00002295  00000-0  16232-3 0  9996,2 50815  53.2148 259.3569 0001113  82.9074 277.2044 15.08824243131793,6917.929,95.439,540.564,539.024,0.0
50815.0,STARLINK-3234,PAYLOAD,2024-05-17 12:13:01,15.08854613,0.0001051,53.2143,257.2762,77.6812,282.4297,0.0013967,0.00022019,0.0,0 STARLINK-3234,1 50815U 22001N   24138.50904848  .00022019  00000-0  13967-2 0  9992,2 50815  53.2143 257.2762 0001051  77.6812 282.4297 15.08854613131862,6917.836,95.437,540.428,538.974,0.0
50815.0,STARLINK-3234,PAYLOAD,2024-05-17 16:59:10,15.08878844,0.0001234,53.2141,256.3864,83.5698,276.5435,0.0022425,0.0003562,0.0,0 STARLINK-3234,1 50815U 22001N   24138.70776455  .00035620  00000-0  22425-2 0  9996,2 50815  53.2141 256.3864 0001234  83.5698 276.5435 15.08878844131897,6917.762,95.435,540.48,538.773,0.0
50815.0,STARLINK-3234,PAYLOAD,2024-05-18 00:56:06,15.08852755,0.0001278,53.216,254.8966,114.4815,245.631,0.00022729,3.333e-05,0.0,0 STARLINK-3234,1 50815U 22001N   24139.03896332  .00003333  00000-0  22729-3 0  9994,2 50815  53.2160 254.8966 0001278 114.4815 245.6310 15.08852755131945,6917.841,95.437,540.591,538.822,0.0
50815.0,STARLINK-3234,PAYLOAD,2024-05-18 12:03:48,15.08832101,0.0001375,53.2144,252.8141,113.5913,246.5224,0.0010444,0.00016369,0.0,0 STARLINK-3234,1 50815U 22001N   24139.50264942  .00016369  00000-0  10444-2 0  9995,2 50815  53.2144 252.8141 0001375 113.5913 246.5224 15.08832101132013,6917.905,95.438,540.721,538.818,0.0
50815.0,STARLINK-3234,PAYLOAD,2024-05-18 13:39:12,15.08837913,0.0001329,53.2142,252.5187,101.5842,258.5299,0.0010689,0.00016763,0.0,0 STARLINK-3234,1 50815U 22001N   24139.56888994  .00016763  00000-0  10689-2 0  9999,2 50815  53.2142 252.5187 0001329 101.5842 258.5299 15.08837913130755,6917.887,95.438,540.671,538.832,0.0
50815.0,STARLINK-3234,PAYLOAD,2024-05-18 16:49:58,15.0886182,0.0001172,53.2147,251.9212,108.9423,251.1696,0.0028615,0.00045575,0.0,0 STARLINK-3234,1 50815U 22001N   24139.70136705  .00045575  00000-0  28615-2 0  9992,2 50815  53.2147 251.9212 0001172 108.9423 251.1696 15.08861820132042,6917.814,95.436,540.489,538.868,0.0
50815.0,STARLINK-3234,PAYLOAD,2024-05-19 13:30:00,15.08827782,0.0001269,53.2145,248.0562,155.1298,204.9755,0.0020648,0.00032715,0.0,0 STARLINK-3234,1 50815U 22001N   24140.56250552  .00032715  00000-0  20648-2 0  9995,2 50815  53.2145 248.0562 0001269 155.1298 204.9755 15.08827782130900,6917.918,95.438,540.661,538.905,0.0
50815.0,STARLINK-3234,PAYLOAD,2024-05-19 16:40:47,15.08831283,6.98e-05,53.2147,247.4618,117.4475,242.6588,0.0020122,0.00031874,0.0,0 STARLINK-3234,1 50815U 22001N   24140.69498880  .00031874  00000-0  20122-2 0  9999,2 50815  53.2147 247.4618 0000698 117.4475 242.6588 15.08831283132197,6917.907,95.438,540.255,539.289,0.0
50815.0,STARLINK-3234,PAYLOAD,2024-05-20 13:20:47,15.08883899,0.0001359,53.2156,243.5968,57.77,302.3424,0.0019824,0.00031441,0.0,0 STARLINK-3234,1 50815U 22001N   24141.55610157  .00031441  00000-0  19824-2 0  9995,2 50815  53.2156 243.5968 0001359  57.7700 302.3424 15.08883899131051,6917.746,95.435,540.551,538.671,0.0
50815.0,STARLINK-3234,PAYLOAD,2024-05-21 13:11:33,15.08849376,8.92e-05,53.2164,239.1342,75.9986,284.1106,0.0013289,0.0002093,0.0,0 STARLINK-3234,1 50815U 22001N   24142.54969748  .00020930  00000-0  13289-2 0  9998,2 50815  53.2164 239.1342 0000892  75.9986 284.1106 15.08849376132479,6917.852,95.437,540.334,539.1,0.0
50815.0,STARLINK-3234,PAYLOAD,2024-05-22 11:26:57,15.08853933,0.00012,53.2164,234.9751,99.2211,260.8917,0.0014134,0.00022286,0.0,0 STARLINK-3234,1 50815U 22001N   24143.47705776  .00022286  00000-0  14134-2 0  9996,2 50815  53.2164 234.9751 0001200  99.2211 260.8917 15.08853933132611,6917.838,95.437,540.533,538.873,0.0
50815.0,STARLINK-3234,PAYLOAD,2024-05-23 12:53:08,15.08841685,0.0001168,53.2161,230.2172,72.4021,287.7099,0.00018452,2.65e-05,0.0,0 STARLINK-3234,1 50815U 22001N   24144.53689989  .00002650  00000-0  18452-3 0  9992,2 50815  53.2161 230.2172 0001168  72.4021 287.7099 15.08841685132776,6917.875,95.437,540.548,538.932,0.0
50815.0,STARLINK-3234,PAYLOAD,2024-05-24 14:19:18,15.0884905,0.0001517,53.2163,225.4596,106.4388,253.6771,0.00022927,3.364e-05,0.0,0 STARLINK-3234,1 50815U 22001N   24145.59673827  .00003364  00000-0  22927-3 0  9998,2 50815  53.2163 225.4596 0001517 106.4388 253.6771 15.08849050131666,6917.853,95.437,540.767,538.668,0.0
50815.0,STARLINK-3234,PAYLOAD,2024-05-24 22:16:14,15.08834176,0.0001086,53.2147,223.9706,120.5312,239.5787,9.6788e-05,1.253e-05,0.0,0 STARLINK-3234,1 50815U 22001N   24145.92794375  .00001253  00000-0  96788-4 0  9999,2 50815  53.2147 223.9706 0001086 120.5312 239.5787 15.08834176131718,6917.898,95.438,540.514,539.012,0.0
50815.0,STARLINK-3234,PAYLOAD,2024-05-25 14:10:06,15.0883509,0.0001252,53.215,220.9992,85.2038,274.9097,0.00014886,2.082e-05,0.0,0 STARLINK-3234,1 50815U 22001N   24146.59034960  .00002082  00000-0  14886-3 0  9999,2 50815  53.2150 220.9992 0001252  85.2038 274.9097 15.08835090131817,6917.895,95.438,540.627,538.894,0.0
50815.0,STARLINK-3234,PAYLOAD,2024-05-26 04:28:34,15.08840802,0.0001056,53.2145,218.3211,85.6537,274.4576,0.00011873,1.602e-05,0.0,0 STARLINK-3234,1 50815U 22001N   24147.18650848  .00001602  00000-0  11873-3 0  9994,2 50815  53.2145 218.3211 0001056  85.6537 274.4576 15.08840802133171,6917.878,95.438,540.473,539.012,0.0
50815.0,STARLINK-3234,PAYLOAD,2024-05-26 09:14:43,15.08844546,0.0001097,53.2145,217.431,78.7366,281.3749,0.00021085,3.07e-05,0.0,0 STARLINK-3234,1 50815U 22001N   24147.38522724  .00003070  00000-0  21085-3 0  9994,2 50815  53.2145 217.4310 0001097  78.7366 281.3749 15.08844546131939,6917.866,95.437,540.49,538.973,0.0
50815.0,STARLINK-3234,PAYLOAD,2024-05-26 21:57:48,15.0885048,0.0001201,53.2142,215.0517,79.9191,280.1937,0.00030053,4.5e-05,0.0,0 STARLINK-3234,1 50815U 22001N   24147.91514450  .00004500  00000-0  30053-3 0  9994,2 50815  53.2142 215.0517 0001201  79.9191 280.1937 15.08850480132015,6917.848,95.437,540.544,538.883,0.0
50815.0,STARLINK-3234,PAYLOAD,2024-05-27 10:40:53,15.08846204,0.000137,53.2147,212.6731,80.1892,279.9255,0.00019069,2.749e-05,0.0,0 STARLINK-3234,1 50815U 22001N   24148.44506583  .00002749  00000-0  19069-3 0  9998,2 50815  53.2147 212.6731 0001370  80.1892 279.9255 15.08846204133367,6917.861,95.437,540.674,538.779,0.0
50815.0,STARLINK-3234,PAYLOAD,2024-05-28 10:31:40,15.08845647,0.0001325,53.2146,208.2114,92.9473,267.167,6.4025e-05,7.31e-06,0.0,0 STARLINK-3234,1 50815U 22001N   24149.43866218  .00000731  00000-0  64025-4 0  9994,2 50815  53.2146 208.2114 0001325  92.9473 267.1670 15.08845647132244,6917.863,95.437,540.645,538.812,0.0
50815.0,STARLINK-3234,PAYLOAD,2024-05-29 10:22:27,15.08836974,0.0001381,53.2158,203.7512,98.2953,261.8195,9.1711e-06,-1.42e-06,0.0,0 STARLINK-3234,1 50815U 22001N   24150.43226706 -.00000142  00000-0  91711-5 0  9998,2 50815  53.2158 203.7512 0001381  98.2953 261.8195 15.08836974133666,6917.89,95.438,540.71,538.799,0.0
50815.0,STARLINK-3234,PAYLOAD,2024-05-29 13:33:14,15.08838194,0.0001359,53.2155,203.156,97.3425,262.7722,1.4876e-05,-5.1e-07,0.0,0 STARLINK-3234,1 50815U 22001N   24150.56474647 -.00000051  00000-0  14876-4 0  9996,2 50815  53.2155 203.1560 0001359  97.3425 262.7722 15.08838194132413,6917.886,95.438,540.691,538.811,0.0
50815.0,STARLINK-3234,PAYLOAD,2024-05-30 08:37:51,15.08843704,0.0001356,53.2156,199.588,96.3611,263.7536,9.2862e-05,1.19e-05,0.0,0 STARLINK-3234,1 50815U 22001N   24151.35962126  .00001190  00000-0  92862-4 0  9993,2 50815  53.2156 199.5880 0001356  96.3611 263.7536 15.08843704133801,6917.869,95.437,540.672,538.796,0.0
50815.0,STARLINK-3234,PAYLOAD,2024-05-31 03:42:29,15.08839512,0.0001279,53.215,196.0199,85.06,275.0538,8.5965e-05,1.08e-05,0.0,0 STARLINK-3234,1 50815U 22001N   24152.15450594  .00001080  00000-0  85965-4 0  9997,2 50815  53.2150 196.0199 0001279  85.0600 275.0538 15.08839512133920,6917.882,95.438,540.632,538.862,0.0
50815.0,STARLINK-3234,PAYLOAD,2024-05-31 11:39:24,15.08840446,0.0001318,53.2154,194.5329,94.6329,265.4813,8.7351e-05,1.103e-05,0.0,0 STARLINK-3234,1 50815U 22001N   24152.48570543  .00001103  00000-0  87351-4 0  9997,2 50815  53.2154 194.5329 0001318  94.6329 265.4813 15.08840446132702,6917.879,95.438,540.656,538.832,0.0
50815.0,STARLINK-3234,PAYLOAD,2024-05-31 19:36:20,15.08836374,0.0001352,53.2156,193.047,90.76,269.3547,3.5021e-05,2.69e-06,0.0,0 STARLINK-3234,1 50815U 22001N   24152.81690961  .00000269  00000-0  35021-4 0  9990,2 50815  53.2156 193.0470 0001352  90.7600 269.3547 15.08836374132759,6917.891,95.438,540.692,538.821,0.0
50815.0,STARLINK-3234,PAYLOAD,2024-06-01 01:57:53,15.08833996,0.0001418,53.2163,191.8579,91.2034,268.912,1.0198e-05,-1.26e-06,0.0,0 STARLINK-3234,1 50815U 22001N   24153.08187266 -.00000126  00000-0  10198-4 0  9990,2 50815  53.2163 191.8579 0001418  91.2034 268.9120 15.08833996134068,6917.899,95.438,540.745,538.783,0.0
